start=new Date('2022-03-11T00:00:00.000Z').valueOf();
sats=[{"OBJECT_ID":"2021-017AQ","CLASSIFICATION_TYPE":"U","RA_OF_ASC_NODE":"294.8171","LAUNCH_DATE":"2021-03-04","MEAN_ELEMENT_THEORY":"SGP4","SITE":"AFETR","GP_ID":"198437697","OBJECT_NAME":"STARLINK-2178","ARG_OF_PERICENTER":"56.8916","ECCENTRICITY":"0.00018120","INCLINATION":"53.0551","OBJECT_TYPE":"PAYLOAD","CENTER_NAME":"EARTH","MEAN_MOTION_DOT":"0.00001766","SEMIMAJOR_AXIS":"6925.369","DECAY_DATE":null,"TLE_LINE2":"2 47760  53.0551 294.8171 0001812  56.8916 303.2246 15.06393372 57599","BSTAR":"0.00013743000000","REV_AT_EPOCH":"5759","ELEMENT_SET_NO":"999","TIME_SYSTEM":"UTC","TLE_LINE1":"1 47760U 21017AQ  22069.91311909  .00001766  00000-0  13743-3 0  9998","RCS_SIZE":"LARGE","PERIOD":"95.593","MEAN_MOTION_DDOT":"0.0000000000000","EPOCH":"2022-03-10T21:54:53.489376","FILE":"3354091","MEAN_MOTION":"15.06393372","COUNTRY_CODE":"US","MEAN_ANOMALY":"303.2246","NORAD_CAT_ID":"47760","APOAPSIS":"548.489","EPHEMERIS_TYPE":"0","REF_FRAME":"TEME","PERIAPSIS":"545.979"},{"MEAN_MOTION_DOT":"0.00002265","INCLINATION":"53.0545","CENTER_NAME":"EARTH","OBJECT_TYPE":"PAYLOAD","REV_AT_EPOCH":"5770","BSTAR":"0.00017090000000","TIME_SYSTEM":"UTC","ELEMENT_SET_NO":"999","DECAY_DATE":null,"SEMIMAJOR_AXIS":"6925.364","TLE_LINE2":"2 47761  53.0545 284.9790 0001711  55.7084 304.4067 15.06394806 57702","LAUNCH_DATE":"2021-03-04","RA_OF_ASC_NODE":"284.9790","MEAN_ELEMENT_THEORY":"SGP4","OBJECT_ID":"2021-017AR","CLASSIFICATION_TYPE":"U","OBJECT_NAME":"STARLINK-2179","ECCENTRICITY":"0.00017110","ARG_OF_PERICENTER":"55.7084","GP_ID":"198437947","SITE":"AFETR","REF_FRAME":"TEME","APOAPSIS":"548.414","NORAD_CAT_ID":"47761","EPHEMERIS_TYPE":"0","PERIAPSIS":"546.045","COUNTRY_CODE":"US","MEAN_ANOMALY":"304.4067","RCS_SIZE":"LARGE","MEAN_MOTION_DDOT":"0.0000000000000","PERIOD":"95.592","EPOCH":"2022-03-10T21:03:07.913088","TLE_LINE1":"1 47761U 21017AR  22069.87717492  .00002265  00000-0  17090-3 0  9995","FILE":"3354091","MEAN_MOTION":"15.06394806"},{"MEAN_ANOMALY":"321.3294","COUNTRY_CODE":"US","FILE":"3354091","MEAN_MOTION":"15.06399801","TLE_LINE1":"1 47762U 21017AS  22069.90249483  .00003519  00000-0  25505-3 0  9993","PERIOD":"95.592","RCS_SIZE":"LARGE","MEAN_MOTION_DDOT":"0.0000000000000","EPOCH":"2022-03-10T21:39:35.553312","REF_FRAME":"TEME","EPHEMERIS_TYPE":"0","NORAD_CAT_ID":"47762","APOAPSIS":"548.436","PERIAPSIS":"545.993","MEAN_ELEMENT_THEORY":"SGP4","RA_OF_ASC_NODE":"299.8709","LAUNCH_DATE":"2021-03-04","OBJECT_ID":"2021-017AS","CLASSIFICATION_TYPE":"U","ARG_OF_PERICENTER":"38.7821","ECCENTRICITY":"0.00017640","OBJECT_NAME":"STARLINK-2180","SITE":"AFETR","GP_ID":"198438695","MEAN_MOTION_DOT":"0.00003519","OBJECT_TYPE":"PAYLOAD","CENTER_NAME":"EARTH","INCLINATION":"53.0542","ELEMENT_SET_NO":"999","TIME_SYSTEM":"UTC","BSTAR":"0.00025505000000","REV_AT_EPOCH":"5751","TLE_LINE2":"2 47762  53.0542 299.8709 0001764  38.7821 321.3294 15.06399801 57512","SEMIMAJOR_AXIS":"6925.349","DECAY_DATE":null},{"COUNTRY_CODE":"US","MEAN_ANOMALY":"262.8999","RCS_SIZE":"LARGE","PERIOD":"95.592","EPOCH":"2022-03-10T20:27:57.374496","MEAN_MOTION_DDOT":"0.0000000000000","TLE_LINE1":"1 47763U 21017AT  22069.85274739  .00003954  00000-0  28414-3 0  9995","FILE":"3354091","MEAN_MOTION":"15.06404411","REF_FRAME":"TEME","APOAPSIS":"548.132","NORAD_CAT_ID":"47763","EPHEMERIS_TYPE":"0","PERIAPSIS":"546.268","LAUNCH_DATE":"2021-03-04","RA_OF_ASC_NODE":"290.0854","MEAN_ELEMENT_THEORY":"SGP4","CLASSIFICATION_TYPE":"U","OBJECT_ID":"2021-017AT","OBJECT_NAME":"STARLINK-2181","ECCENTRICITY":"0.00013460","ARG_OF_PERICENTER":"97.2143","GP_ID":"198438442","SITE":"AFETR","MEAN_MOTION_DOT":"0.00003954","INCLINATION":"53.0549","CENTER_NAME":"EARTH","OBJECT_TYPE":"PAYLOAD","REV_AT_EPOCH":"5762","BSTAR":"0.00028414000000","TIME_SYSTEM":"UTC","ELEMENT_SET_NO":"999","DECAY_DATE":null,"SEMIMAJOR_AXIS":"6925.335","TLE_LINE2":"2 47763  53.0549 290.0854 0001346  97.2143 262.8999 15.06404411 57624"},{"REF_FRAME":"TEME","NORAD_CAT_ID":"47764","APOAPSIS":"548.338","EPHEMERIS_TYPE":"0","PERIAPSIS":"546.107","COUNTRY_CODE":"US","MEAN_ANOMALY":"298.1088","TLE_LINE1":"1 47764U 21017AU  22069.88869096  .00000737  00000-0  68388-4 0  9996","RCS_SIZE":"LARGE","EPOCH":"2022-03-10T21:19:42.898944","PERIOD":"95.592","MEAN_MOTION_DDOT":"0.0000000000000","FILE":"3354091","MEAN_MOTION":"15.06397118","MEAN_MOTION_DOT":"0.00000737","INCLINATION":"53.0537","OBJECT_TYPE":"PAYLOAD","CENTER_NAME":"EARTH","BSTAR":"0.00006838800000","REV_AT_EPOCH":"5754","ELEMENT_SET_NO":"999","TIME_SYSTEM":"UTC","SEMIMAJOR_AXIS":"6925.357","DECAY_DATE":null,"TLE_LINE2":"2 47764  53.0537 299.9231 0001611  62.0064 298.1088 15.06397118 57543","RA_OF_ASC_NODE":"299.9231","LAUNCH_DATE":"2021-03-04","MEAN_ELEMENT_THEORY":"SGP4","OBJECT_ID":"2021-017AU","CLASSIFICATION_TYPE":"U","OBJECT_NAME":"STARLINK-2182","ARG_OF_PERICENTER":"62.0064","ECCENTRICITY":"0.00016110","SITE":"AFETR","GP_ID":"198437198"},{"REF_FRAME":"TEME","NORAD_CAT_ID":"47765","APOAPSIS":"434.751","EPHEMERIS_TYPE":"0","PERIAPSIS":"433.338","COUNTRY_CODE":"US","MEAN_ANOMALY":"277.1393","TLE_LINE1":"1 47765U 21017AV  22069.86403803  .00725153  00000-0  14408-1 0  9992","MEAN_MOTION_DDOT":"0.0000000000000","RCS_SIZE":"LARGE","PERIOD":"93.259","EPOCH":"2022-03-10T20:44:12.885792","FILE":"3354091","MEAN_MOTION":"15.44093553","MEAN_MOTION_DOT":"0.00725153","INCLINATION":"53.0518","OBJECT_TYPE":"PAYLOAD","CENTER_NAME":"EARTH","BSTAR":"0.01440800000000","REV_AT_EPOCH":"5786","ELEMENT_SET_NO":"999","TIME_SYSTEM":"UTC","SEMIMAJOR_AXIS":"6812.180","DECAY_DATE":null,"TLE_LINE2":"2 47765  53.0518 273.7937 0001037  82.9730 277.1393 15.44093553 57868","RA_OF_ASC_NODE":"273.7937","LAUNCH_DATE":"2021-03-04","MEAN_ELEMENT_THEORY":"SGP4","CLASSIFICATION_TYPE":"U","OBJECT_ID":"2021-017AV","OBJECT_NAME":"STARLINK-2183","ARG_OF_PERICENTER":"82.9730","ECCENTRICITY":"0.00010370","SITE":"AFETR","GP_ID":"198437448"},{"NORAD_CAT_ID":"47766","APOAPSIS":"548.426","EPHEMERIS_TYPE":"0","REF_FRAME":"TEME","PERIAPSIS":"546.051","TLE_LINE1":"1 47766U 21017AW  22069.90712591  .00001082  00000-0  91532-4 0  9999","PERIOD":"95.593","RCS_SIZE":"LARGE","EPOCH":"2022-03-10T21:46:15.678624","MEAN_MOTION_DDOT":"0.0000000000000","FILE":"3354091","MEAN_MOTION":"15.06391901","COUNTRY_CODE":"US","MEAN_ANOMALY":"305.9216","INCLINATION":"53.0544","OBJECT_TYPE":"PAYLOAD","CENTER_NAME":"EARTH","MEAN_MOTION_DOT":"0.00001082","SEMIMAJOR_AXIS":"6925.373","DECAY_DATE":null,"TLE_LINE2":"2 47766  53.0544 299.8480 0001715  54.1932 305.9216 15.06391901 57486","BSTAR":"0.00009153200000","REV_AT_EPOCH":"5748","ELEMENT_SET_NO":"999","TIME_SYSTEM":"UTC","CLASSIFICATION_TYPE":"U","OBJECT_ID":"2021-017AW","RA_OF_ASC_NODE":"299.8480","LAUNCH_DATE":"2021-03-04","MEAN_ELEMENT_THEORY":"SGP4","SITE":"AFETR","GP_ID":"198438196","OBJECT_NAME":"STARLINK-2184","ARG_OF_PERICENTER":"54.1932","ECCENTRICITY":"0.00017150"},{"MEAN_ELEMENT_THEORY":"SGP4","RA_OF_ASC_NODE":"285.0304","LAUNCH_DATE":"2021-03-04","CLASSIFICATION_TYPE":"U","OBJECT_ID":"2021-017AX","ARG_OF_PERICENTER":"58.4040","ECCENTRICITY":"0.00016110","OBJECT_NAME":"STARLINK-2185","SITE":"AFETR","GP_ID":"198438942","MEAN_MOTION_DOT":"0.00004113","OBJECT_TYPE":"PAYLOAD","CENTER_NAME":"EARTH","INCLINATION":"53.0538","ELEMENT_SET_NO":"999","TIME_SYSTEM":"UTC","BSTAR":"0.00029484000000","REV_AT_EPOCH":"5775","TLE_LINE2":"2 47767  53.0538 285.0304 0001611  58.4040 301.7106 15.06405558 57750","SEMIMAJOR_AXIS":"6925.332","DECAY_DATE":null,"MEAN_ANOMALY":"301.7106","COUNTRY_CODE":"US","FILE":"3354091","MEAN_MOTION":"15.06405558","TLE_LINE1":"1 47767U 21017AX  22069.86610539  .00004113  00000-0  29484-3 0  9998","PERIOD":"95.592","RCS_SIZE":"LARGE","MEAN_MOTION_DDOT":"0.0000000000000","EPOCH":"2022-03-10T20:47:11.505696","REF_FRAME":"TEME","EPHEMERIS_TYPE":"0","NORAD_CAT_ID":"47767","APOAPSIS":"548.312","PERIAPSIS":"546.081"},{"REV_AT_EPOCH":"5751","BSTAR":"0.00010215000000","TIME_SYSTEM":"UTC","ELEMENT_SET_NO":"999","DECAY_DATE":null,"SEMIMAJOR_AXIS":"6925.393","TLE_LINE2":"2 47768  53.0547 300.0177 0001581  61.1041 299.0107 15.06385617 57512","MEAN_MOTION_DOT":"0.00001240","INCLINATION":"53.0547","CENTER_NAME":"EARTH","OBJECT_TYPE":"PAYLOAD","OBJECT_NAME":"STARLINK-2189","ECCENTRICITY":"0.00015810","ARG_OF_PERICENTER":"61.1041","GP_ID":"198437698","SITE":"AFETR","LAUNCH_DATE":"2021-03-04","RA_OF_ASC_NODE":"300.0177","MEAN_ELEMENT_THEORY":"SGP4","OBJECT_ID":"2021-017AY","CLASSIFICATION_TYPE":"U","PERIAPSIS":"546.163","REF_FRAME":"TEME","APOAPSIS":"548.353","NORAD_CAT_ID":"47768","EPHEMERIS_TYPE":"0","COUNTRY_CODE":"US","MEAN_ANOMALY":"299.0107","RCS_SIZE":"LARGE","PERIOD":"95.593","MEAN_MOTION_DDOT":"0.0000000000000","EPOCH":"2022-03-10T20:51:49.580640","TLE_LINE1":"1 47768U 21017AY  22069.86932385  .00001240  00000-0  10215-3 0  9995","FILE":"3354091","MEAN_MOTION":"15.06385617"},{"OBJECT_ID":"2021-017AZ","CLASSIFICATION_TYPE":"U","LAUNCH_DATE":"2021-03-04","RA_OF_ASC_NODE":"265.0812","MEAN_ELEMENT_THEORY":"SGP4","GP_ID":"198437948","SITE":"AFETR","OBJECT_NAME":"STARLINK-2192","ECCENTRICITY":"0.00014130","ARG_OF_PERICENTER":"66.1948","INCLINATION":"53.0536","CENTER_NAME":"EARTH","OBJECT_TYPE":"PAYLOAD","MEAN_MOTION_DOT":"0.00002756","DECAY_DATE":null,"SEMIMAJOR_AXIS":"6925.371","TLE_LINE2":"2 47769  53.0536 265.0812 0001413  66.1948 293.9189 15.06392800 58024","REV_AT_EPOCH":"5802","BSTAR":"0.00020390000000","TIME_SYSTEM":"UTC","ELEMENT_SET_NO":"999","EPOCH":"2022-03-10T20:23:20.281056","RCS_SIZE":"LARGE","PERIOD":"95.593","MEAN_MOTION_DDOT":"0.0000000000000","TLE_LINE1":"1 47769U 21017AZ  22069.84954029  .00002756  00000-0  20390-3 0  9991","MEAN_MOTION":"15.06392800","FILE":"3354091","COUNTRY_CODE":"US","MEAN_ANOMALY":"293.9189","APOAPSIS":"548.214","NORAD_CAT_ID":"47769","EPHEMERIS_TYPE":"0","REF_FRAME":"TEME","PERIAPSIS":"546.257"}];
